0 LEMUR 2 ANDIS
1 42838U 17042P   24001.52850193  .00006272  00000-0  50432-3 0  9993
2 42838  97.3699 198.3866 0012281 252.9564 107.0315 15.00274501352471
0 LEMUR 2 ANDIS
1 42838U 17042P   24002.52894326  .00007096  00000-0  56972-3 0  9990
2 42838  97.3697 199.3346 0012329 248.8527 111.1380 15.00289047352625
0 LEMUR 2 ANDIS
1 42838U 17042P   24003.52937592  .00006480  00000-0  52045-3 0  9997
2 42838  97.3695 200.2824 0012313 245.7892 114.2046 15.00301819352771
0 LEMUR 2 ANDIS
1 42838U 17042P   24004.52980007  .00005915  00000-0  47536-3 0  9998
2 42838  97.3698 201.2311 0012419 241.1120 118.8859 15.00313560352922
0 LEMUR 2 ANDIS
1 42838U 17042P   24005.53021585  .00006295  00000-0  50538-3 0  9995
2 42838  97.3698 202.1796 0012489 236.9473 123.0553 15.00326978353072
0 LEMUR 2 ANDIS
1 42838U 17042P   24006.53062360  .00006051  00000-0  48586-3 0  9992
2 42838  97.3699 203.1281 0012505 233.1812 126.8266 15.00339169353223
0 LEMUR 2 ANDIS
1 42838U 17042P   24006.86409065  .00005862  00000-0  47075-3 0  9996
2 42838  97.3698 203.4441 0012524 231.8542 128.1555 15.00343164353270
0 LEMUR 2 ANDIS
1 42838U 17042P   24007.53102237  .00006786  00000-0  54408-3 0  9996
2 42838  97.3697 204.0765 0012491 229.5564 130.4572 15.00353743353376
0 LEMUR 2 ANDIS
1 42838U 17042P   24007.86448655  .00006704  00000-0  53750-3 0  9998
2 42838  97.3695 204.3925 0012486 228.3626 131.6530 15.00357942353423
0 LEMUR 2 ANDIS
1 42838U 17042P   24008.46471952  .00007192  00000-0  57609-3 0  9990
2 42838  97.3693 204.9616 0012537 225.9348 134.0845 15.00366956353516
0 LEMUR 2 ANDIS
1 42838U 17042P   24008.86487295  .00007484  00000-0  59919-3 0  9991
2 42838  97.3692 205.3410 0012550 224.3722 135.6497 15.00373050353575
0 LEMUR 2 ANDIS
1 42838U 17042P   24009.06494898  .00007472  00000-0  59823-3 0  9992
2 42838  97.3691 205.5307 0012568 223.5592 136.4641 15.00376162353607
0 LEMUR 2 ANDIS
1 42838U 17042P   24009.53179155  .00008221  00000-0  65750-3 0  9999
2 42838  97.3690 205.9731 0012555 221.9071 138.1194 15.00384282353672
0 LEMUR 2 ANDIS
1 42838U 17042P   24010.06532300  .00007952  00000-0  63604-3 0  9990
2 42838  97.3688 206.4789 0012599 219.7208 140.3095 15.00392362353755
0 LEMUR 2 ANDIS
1 42838U 17042P   24010.46546951  .00008070  00000-0  64529-3 0  9990
2 42838  97.3687 206.8583 0012605 218.2333 141.7999 15.00398949353813
0 LEMUR 2 ANDIS
1 42838U 17042P   24011.06568500  .00009771  00000-0  77989-3 0  9994
2 42838  97.3686 207.4273 0012661 215.7174 144.3205 15.00412631353906
0 LEMUR 2 ANDIS
1 42838U 17042P   24011.53251566  .00010388  00000-0  82852-3 0  9998
2 42838  97.3685 207.8698 0012693 213.9081 146.1334 15.00422893353973
0 LEMUR 2 ANDIS
1 42838U 17042P   24012.06603300  .00010129  00000-0  80777-3 0  9991
2 42838  97.3685 208.3756 0012698 211.9268 148.1188 15.00433581354059
0 LEMUR 2 ANDIS
1 42838U 17042P   24012.53285726  .00010234  00000-0  81589-3 0  9990
2 42838  97.3684 208.8182 0012724 210.1287 149.9207 15.00443515354125
0 LEMUR 2 ANDIS
1 42838U 17042P   24013.06636664  .00010472  00000-0  83450-3 0  9993
2 42838  97.3684 209.3240 0012782 207.9597 152.0942 15.00455618354205
0 LEMUR 2 ANDIS
1 42838U 17042P   24013.53318416  .00010500  00000-0  83644-3 0  9994
2 42838  97.3685 209.7667 0012766 206.2514 153.8065 15.00465943354270
0 LEMUR 2 MONSON
1 42839U 17042Q   24001.06653117  .00005072  00000-0  41513-3 0  9997
2 42839  97.3747 197.5921 0010803 258.4083 101.5928 14.99690923352368
0 LEMUR 2 MONSON
1 42839U 17042Q   24001.53358647  .00005448  00000-0  44546-3 0  9995
2 42839  97.3747 198.0348 0010803 256.2665 103.7357 14.99696792352437
0 LEMUR 2 MONSON
1 42839U 17042Q   24002.06736169  .00006092  00000-0  49745-3 0  9995
2 42839  97.3747 198.5405 0010771 254.3697 105.6338 14.99704180352514
0 LEMUR 2 MONSON
1 42839U 17042Q   24002.53441330  .00006066  00000-0  49528-3 0  9990
2 42839  97.3748 198.9830 0010740 252.4792 107.5259 14.99709640352588
0 LEMUR 2 MONSON
1 42839U 17042Q   24003.06818414  .00005936  00000-0  48472-3 0  9992
2 42839  97.3748 199.4888 0010722 250.3083 109.6984 14.99715948352662
0 LEMUR 2 MONSON
1 42839U 17042Q   24003.53523213  .00005675  00000-0  46351-3 0  9998
2 42839  97.3749 199.9314 0010674 248.5844 111.4241 14.99721098352730
0 LEMUR 2 MONSON
1 42839U 17042Q   24004.46932288  .00005735  00000-0  46823-3 0  9998
2 42839  97.3749 200.8165 0010630 244.7212 115.2911 14.99732164352872
0 LEMUR 2 MONSON
1 42839U 17042Q   24004.53604357  .00005383  00000-0  43982-3 0  9991
2 42839  97.3749 200.8799 0010630 244.3466 115.6660 14.99732118352887
0 LEMUR 2 MONSON
1 42839U 17042Q   24005.47012749  .00005524  00000-0  45105-3 0  9999
2 42839  97.3750 201.7652 0010653 239.8400 120.1769 14.99742844353024
0 LEMUR 2 MONSON
1 42839U 17042Q   24005.53684776  .00005096  00000-0  41652-3 0  9998
2 42839  97.3750 201.8284 0010652 239.5576 120.4596 14.99742573353037
0 LEMUR 2 MONSON
1 42839U 17042Q   24006.47092506  .00005339  00000-0  43602-3 0  9993
2 42839  97.3750 202.7134 0010630 235.6981 124.3237 14.99753416353172
0 LEMUR 2 MONSON
1 42839U 17042Q   24006.53764467  .00005230  00000-0  42723-3 0  9995
2 42839  97.3750 202.7766 0010656 235.1724 124.8498 14.99753855353183
0 LEMUR 2 MONSON
1 42839U 17042Q   24007.47171518  .00005477  00000-0  44707-3 0  9995
2 42839  97.3748 203.6619 0010631 231.4123 128.6150 14.99764724353322
0 LEMUR 2 MONSON
1 42839U 17042Q   24007.53843412  .00005883  00000-0  47976-3 0  9993
2 42839  97.3748 203.7250 0010618 231.2555 128.7720 14.99766397353339
0 LEMUR 2 MONSON
1 42839U 17042Q   24008.47249675  .00005962  00000-0  48600-3 0  9991
2 42839  97.3746 204.6103 0010613 227.2769 132.7562 14.99777786353479
0 LEMUR 2 MONSON
1 42839U 17042Q   24009.47326928  .00006964  00000-0  56663-3 0  9990
2 42839  97.3745 205.5587 0010591 223.0851 136.9545 14.99792932353629
0 LEMUR 2 MONSON
1 42839U 17042Q   24009.53998713  .00007271  00000-0  59139-3 0  9997
2 42839  97.3743 205.6219 0010565 223.0236 137.0163 14.99794491353639
0 LEMUR 2 MONSON
1 42839U 17042Q   24010.47403243  .00007248  00000-0  58935-3 0  9998
2 42839  97.3743 206.5073 0010567 219.1047 140.9414 14.99807571353776
0 LEMUR 2 MONSON
1 42839U 17042Q   24011.47478445  .00008471  00000-0  68762-3 0  9993
2 42839  97.3741 207.4563 0010523 215.0351 145.0182 14.99825616353928
0 LEMUR 2 MONSON
1 42839U 17042Q   24012.47552377  .00008934  00000-0  72454-3 0  9998
2 42839  97.3743 208.4050 0010554 210.6907 149.3701 14.99844661354076
0 LEMUR 2 MONSON
1 42839U 17042Q   24013.47625060  .00009145  00000-0  74117-3 0  9992
2 42839  97.3745 209.3539 0010550 206.5427 153.5258 14.99863773354223
0 LEMUR 2 MONSON
1 42839U 17042Q   24013.54296523  .00009513  00000-0  77070-3 0  9998
2 42839  97.3746 209.4171 0010510 206.4099 153.6591 14.99865736354230
0 LEMUR 2 FURIAUS
1 42840U 17042R   24001.50404982  .00006049  00000-0  49204-3 0  9992
2 42840  97.3820 198.4225 0008754 271.9258  88.0964 14.99872792352427
0 LEMUR 2 FURIAUS
1 42840U 17042R   24002.50475738  .00007744  00000-0  62826-3 0  9998
2 42840  97.3821 199.3717 0008776 268.1158  91.9061 14.99889164352573
0 LEMUR 2 FURIAUS
1 42840U 17042R   24003.50545665  .00006019  00000-0  48925-3 0  9994
2 42840  97.3823 200.3212 0008846 263.9184  96.1032 14.99899579352721
0 LEMUR 2 FURIAUS
1 42840U 17042R   24003.83902135  .00006281  00000-0  51028-3 0  9998
2 42840  97.3824 200.6377 0008866 262.7088  97.3129 14.99904119352771
0 LEMUR 2 FURIAUS
1 42840U 17042R   24004.50614748  .00006083  00000-0  49423-3 0  9999
2 42840  97.3823 201.2707 0008911 260.1050  99.9168 14.99912592352872
0 LEMUR 2 FURIAUS
1 42840U 17042R   24005.50682971  .00006179  00000-0  50176-3 0  9996
2 42840  97.3823 202.2202 0008981 256.4895 103.5329 14.99925626353026
0 LEMUR 2 FURIAUS
1 42840U 17042R   24005.84038876  .00006033  00000-0  49001-3 0  9996
2 42840  97.3824 202.5367 0009026 255.5918 104.4305 14.99929310353072
0 LEMUR 2 FURIAUS
1 42840U 17042R   24006.50750435  .00005628  00000-0  45732-3 0  9998
2 42840  97.3822 203.1701 0009066 253.3456 106.6773 14.99936784353173
0 LEMUR 2 FURIAUS
1 42840U 17042R   24007.50817100  .00005695  00000-0  46258-3 0  9990
2 42840  97.3817 204.1195 0009129 249.6835 110.3408 14.99948732353324
0 LEMUR 2 FURIAUS
1 42840U 17042R   24007.84172455  .00005995  00000-0  48661-3 0  9997
2 42840  97.3816 204.4361 0009161 248.4505 111.5744 14.99953286353379
0 LEMUR 2 FURIAUS
1 42840U 17042R   24008.50882925  .00006013  00000-0  48793-3 0  9999
2 42840  97.3812 205.0691 0009221 245.7486 114.2776 14.99961545353476
0 LEMUR 2 FURIAUS
1 42840U 17042R   24008.84237977  .00006768  00000-0  54851-3 0  9996
2 42840  97.3809 205.3857 0009246 244.5275 115.4993 14.99967339353526
0 LEMUR 2 FURIAUS
1 42840U 17042R   24009.50947813  .00007095  00000-0  57459-3 0  9998
2 42840  97.3806 206.0188 0009311 242.0830 117.9452 14.99976999353621
0 LEMUR 2 FURIAUS
1 42840U 17042R   24009.77631626  .00007433  00000-0  60169-3 0  9997
2 42840  97.3805 206.2720 0009339 241.2028 118.8259 14.99981167353666
0 LEMUR 2 FURIAUS
1 42840U 17042R   24010.44340873  .00007014  00000-0  56792-3 0  9996
2 42840  97.3802 206.9050 0009405 238.8166 121.2137 14.99990057353767
0 LEMUR 2 FURIAUS
1 42840U 17042R   24010.51011759  .00007500  00000-0  60690-3 0  9994
2 42840  97.3802 206.9683 0009418 238.5660 121.4644 14.99991966353775
0 LEMUR 2 FURIAUS
1 42840U 17042R   24011.51074516  .00008839  00000-0  71395-3 0  9995
2 42840  97.3799 207.9176 0009518 235.2144 124.8185 15.00010973353927
0 LEMUR 2 FURIAUS
1 42840U 17042R   24012.51135938  .00009204  00000-0  74277-3 0  9991
2 42840  97.3797 208.8671 0009590 231.9983 128.0376 15.00031256354071
0 LEMUR 2 FURIAUS
1 42840U 17042R   24013.51196147  .00008982  00000-0  72468-3 0  9993
2 42840  97.3794 209.8163 0009709 228.5864 131.4527 15.00049517354229
0 LEMUR 2 PETERG
1 42841U 17042S   24001.48193416  .00006995  00000-0  57006-3 0  9996
2 42841  97.3774 199.7336 0009252 251.1501 108.8720 14.99742314352492
